ONEWEB-0311             
1 49097U 21075Y   24329.34671141  .00000056  00000+0  11213-3 0  9992
2 49097  87.9080 119.3800 0001732 110.9801 249.1516 13.17650090158585
ONEWEB-0312             
1 49098U 21075Z   24329.96936875  .00000677  00000+0  17108-2 0  9996
2 49098  87.9083 119.2870 0001549 117.2769 242.8520 13.17656892159621
ONEWEB-0313             
1 49099U 21075AA  24329.89837229 -.00000184  00000+0 -50619-3 0  9992
2 49099  87.9078 119.3171 0001448 103.8083 256.3210 13.17649039158629
ONEWEB-0314             
1 49100U 21075AB  24329.94068793 -.00009180  00000+0 -23686-1 0  9990
2 49100  87.9066 119.2480 0001853 119.2376 240.8941 13.17694393159596
ONEWEB-0315             
1 49101U 21075AC  24329.33656489 -.00000531  00000+0 -15105-2 0  9998
2 49101  87.8860 104.1307 0002063 107.9200 252.2153 13.12441721160429
ONEWEB-0316             
1 49102U 21075AD  24329.32700423  .00000051  00000+0  97321-4 0  9993
2 49102  87.9105  88.8566 0001643 103.0077 257.1239 13.18689732162108
ONEWEB-0317             
1 49103U 21075AE  24329.33007588 -.00000305  00000+0 -88234-3 0  9993
2 49103  87.8862 104.1443 0001402  79.5812 280.5475 13.12440098160442
ONEWEB-0318             
1 49104U 21075AF  24329.77908489 -.00000324  00000+0 -85500-3 0  9996
2 49104  87.9100  88.7560 0001818 109.1769 250.9560 13.18685332162129
